STARLINK-2022           
1 47643U 21012Z   24095.81173534  .00001878  00000+0  14492-3 0  9998
2 47643  53.0548 331.4485 0001350  98.5244 261.5898 15.06395170173658
